{
  "norad_id": 60545,
  "name": "HAWK-10B",
  "history": [
    {
      "epoch": "2026-04-10T03:56:40.250400Z",
      "apogee_km": 581.2431132733263,
      "perigee_km": 575.3411396738438,
      "latitude_deg": 8.839103291609647e-05,
      "longitude_deg": -80.89834757495987,
      "height_km": 578.5968877966451,
      "semi_major_axis_km": 6956.429126473585,
      "eccentricity": 0.00042421,
      "inclination_deg": 97.6835,
      "raan_deg": 176.6715,
      "arg_perigee_deg": 338.565,
      "mean_anomaly_deg": 21.5394,
      "mean_motion_rev_day": 14.96315638
    },
    {
      "epoch": "2026-04-11T18:27:46.389024Z",
      "apogee_km": 581.2223232533042,
      "perigee_km": 575.3385853704467,
      "latitude_deg": 5.044568676286309e-06,
      "longitude_deg": 61.31988949598394,
      "height_km": 578.7628734799563,
      "semi_major_axis_km": 6956.417454311875,
      "eccentricity": 0.0004229,
      "inclination_deg": 97.6837,
      "raan_deg": 178.2472,
      "arg_perigee_deg": 330.8746,
      "mean_anomaly_deg": 29.2239,
      "mean_motion_rev_day": 14.96319404
    },
    {
      "epoch": "2026-04-12T23:21:05.821056Z",
      "apogee_km": 581.1869825353297,
      "perigee_km": 575.3616836849833,
      "latitude_deg": -2.6620808471313e-05,
      "longitude_deg": -12.015591940160578,
      "height_km": 578.9218291701534,
      "semi_major_axis_km": 6956.411333110156,
      "eccentricity": 0.0004187,
      "inclination_deg": 97.6836,
      "raan_deg": 179.4291,
      "arg_perigee_deg": 325.6678,
      "mean_anomaly_deg": 34.4272,
      "mean_motion_rev_day": 14.96321379
    },
    {
      "epoch": "2026-04-14T15:28:29.193312Z",
      "apogee_km": 581.1553621383837,
      "perigee_km": 575.3773735010718,
      "latitude_deg": -3.42726701717243e-05,
      "longitude_deg": 106.1306266482945,
      "height_km": 579.162600690794,
      "semi_major_axis_km": 6956.4033678197275,
      "eccentricity": 0.0004153,
      "inclination_deg": 97.6834,
      "raan_deg": 181.0705,
      "arg_perigee_deg": 318.2987,
      "mean_anomaly_deg": 41.7917,
      "mean_motion_rev_day": 14.96323949
    },
    {
      "epoch": "2026-04-15T15:32:55.135104Z",
      "apogee_km": 581.1358370188627,
      "perigee_km": 575.3898507478152,
      "latitude_deg": -6.0594496975550105e-05,
      "longitude_deg": 105.01866239137665,
      "height_km": 579.3392323726192,
      "semi_major_axis_km": 6956.399843883339,
      "eccentricity": 0.000413,
      "inclination_deg": 97.6833,
      "raan_deg": 182.0553,
      "arg_perigee_deg": 313.4861,
      "mean_anomaly_deg": 46.6016,
      "mean_motion_rev_day": 14.96325086
    },
    {
      "epoch": "2026-04-16T15:37:21.075168Z",
      "apogee_km": 581.1182429207274,
      "perigee_km": 575.3973038590912,
      "latitude_deg": 3.250540332168446e-05,
      "longitude_deg": 103.90698943396525,
      "height_km": 579.5201158964895,
      "semi_major_axis_km": 6956.394773389909,
      "eccentricity": 0.0004112,
      "inclination_deg": 97.6833,
      "raan_deg": 183.0404,
      "arg_perigee_deg": 308.7756,
      "mean_anomaly_deg": 51.3098,
      "mean_motion_rev_day": 14.96326722
    },
    {
      "epoch": "2026-04-17T17:18:04.730976Z",
      "apogee_km": 581.0978050105878,
      "perigee_km": 575.4112331993801,
      "latitude_deg": 5.767917266287417e-05,
      "longitude_deg": 78.72089778407191,
      "height_km": 579.7400381195328,
      "semi_major_axis_km": 6956.391519104984,
      "eccentricity": 0.00040873,
      "inclination_deg": 97.6831,
      "raan_deg": 184.0908,
      "arg_perigee_deg": 303.4807,
      "mean_anomaly_deg": 56.6024,
      "mean_motion_rev_day": 14.96327772
    },
    {
      "epoch": "2026-04-18T10:57:19.749312Z",
      "apogee_km": 581.0819407705067,
      "perigee_km": 575.4223616848512,
      "latitude_deg": -1.467684366205769e-05,
      "longitude_deg": 173.90550033984766,
      "height_km": 579.894291120607,
      "semi_major_axis_km": 6956.389151227679,
      "eccentricity": 0.00040679,
      "inclination_deg": 97.6829,
      "raan_deg": 184.813,
      "arg_perigee_deg": 299.9337,
      "mean_anomaly_deg": 60.148,
      "mean_motion_rev_day": 14.96328536
    }
  ]
}